IRIDIUM 921             
1 24873U 97034E   24315.43961663  .00173630  00000+0  20553-2 0  9996
2 24873  86.3764 214.7998 0007487  71.8648 288.3431 15.60668144498078
IRIDIUM 26              
1 24903U 97043A   24315.39575937  .00001816  00000+0  60928-3 0  9997
2 24903  86.4014 202.4183 0002381  83.2693 276.8775 14.36785786425792
IRIDIUM 22              
1 24907U 97043E   24315.14755204  .00001785  00000+0  61246-3 0  9990
2 24907  86.4017 205.8707 0002127  80.8792 279.2645 14.35639089425335
DUMMY MASS 1            
1 24925U 97048A   24315.21377224  .00001971  00000+0  21923-3 0  9990
2 24925  86.3372 236.4759 0006082 181.0395 179.0818 14.86605399472831
DUMMY MASS 2            
1 24926U 97048B   24315.07229260  .00002303  00000+0  25828-3 0  9999
2 24926  86.3363 238.1092 0006335 195.9491 164.1535 14.86360749472594
IRIDIUM 29              
1 24944U 97051A   24314.89574375  .00002111  00000+0  71893-3 0  9992
2 24944  86.3980 235.7808 0002076  83.2600 276.8833 14.36094438421798
IRIDIUM 33              
1 24946U 97051C   24314.71483391  .00001642  00000+0  57404-3 0  9992
2 24946  86.3897 235.1037 0010100  76.5829 283.6492 14.34639966421279
IRIDIUM 28              
1 24948U 97051E   24314.73344424  .00002230  00000+0  74556-3 0  9990
2 24948  86.3988 233.4896 0002732  83.0238 277.1270 14.37043656422322
